PANDORA
1 67395U 80229J   26062.71320602  .00000000  00000-0  37770-3 0    08
2 67395  97.8040  63.0303 0006644 111.7421 173.1446 14.87843701    01
